NUVIEW BRAVO            
1 62457U 24252D   26166.52771347 -.00000212  00000+0  00000+0 0  9990
2 62457   0.0665 155.7486 0001816 325.7501 249.1694  1.00269050  3773
THURAYA-4               
1 62483U 25001A   26166.02475333  .00000144  00000+0  00000+0 0  9996
2 62483   0.0244  61.2066 0000252 208.6331  46.6976  1.00272022  4152
SHIJIAN-25 (SJ-25)      
1 62485U 25002A   26166.67470828 -.00000352  00000+0  00000+0 0  9996
2 62485   5.1098  61.1749 0052218 173.3259  39.6557  1.00268248  5344
TJS-14                  
1 62804U 25017A   26166.97560995  .00000117  00000+0  00000+0 0  9993
2 62804   0.7851 295.5385 0000968 289.7132  48.6045  1.00273733  5250
SPAINSAT NG I           
1 62852U 25021A   26166.26482125  .00000155  00000+0  00000+0 0  9993
2 62852   0.0139 329.3913 0000300 248.3938 170.1087  1.00272968  3965
QZS-6 (MICHIBIKI-6)     
1 62876U 25023A   26166.97333126 -.00000233  00000+0  00000+0 0  9993
2 62876   0.0509  69.0708 0001703  21.7001 254.4014  1.00270916  4939
ZHONGXING-10R           
1 63075U 25036A   26166.97462494 -.00000352  00000+0  00000+0 0  9992
2 63075   0.0304 241.5917 0003391 258.4851 225.5734  1.00272331  4942
TJS-15                  
1 63157U 25045A   26166.75665602 -.00000263  00000+0  00000+0 0  9996
2 63157   0.2819  85.5188 0004653 296.3695 248.9385  1.00271770  4746
TIANLIAN 2-04           
1 63361U 25062A   26166.84521159 -.00000131  00000+0  00000+0 0  9994
2 63361   4.3780 274.4605 0031727  10.3477   3.6450  1.00271719  4597
TJS-16                  
1 63397U 25064A   26166.74120155 -.00000104  00000+0  00000+0 0  9995
2 63397   1.0947  81.4631 0003346 288.8625 321.1370  1.00271298  4370
TJS-17                  
1 63524U 25073A   26166.64808475 -.00000068  00000+0  00000+0 0  9993
2 63524   1.0603  82.7072 0002069 295.7661 283.3003  1.00271945  4272
TIANLIAN 2-05           
1 63662U 25084A   26166.99809418  .00000128  00000+0  00000+0 0  9990
2 63662   4.4541 279.8509 0003086 146.4636 217.6246  1.00269846  4378
TJS-19                  
1 63924U 25097A   26166.75495963 -.00000274  00000+0  00000+0 0  9998
2 63924   3.2887 317.4231 0002327 241.3377 118.2267  1.00265867  4125
CHINASAT 3B             
1 64062U 25106A   26166.79119052 -.00000044  00000+0  00000+0 0  9994
2 64062   0.0277  96.0818 0002904  28.9177 231.2153  1.00270225  4041
SXM-10                  
1 64290U 25122A   26166.01642035 -.00000012  00000+0  00000+0 0  9997
2 64290   0.0180  20.5552 0001715 338.6402 153.8564  1.00271714  3661
COSMOS 2589             
1 64467U 25131A   26166.75856389 -.00000290  00000+0  00000+0 0  9991
2 64467   0.0298  73.2464 0000171  36.0835 165.7556  1.00272983  3547
CHINASAT 9C             
1 64470U 25132A   26166.85823119  .00000000  00000+0  00000+0 0  9990
2 64470   0.0166  10.1677 0002576  73.1075 222.0256  1.00267685  4133
MTG-S1                  
1 64723U 25143A   26166.32965113 -.00000028  00000+0  00000+0 0  9997
2 64723   0.6048 338.5512 0000988  10.7068  29.5609  1.00271862  3401
DROR 1                  
1 64784U 25148A   26166.68595825 -.00000032  00000+0  00000+0 0  9992
2 64784   0.0316  60.3506 0002528 327.8886 118.6699  1.00271873  3282
SHIYAN-29               
1 65486U 25196A   26166.05322593 -.00000280  00000+0  00000+0 0  9991
2 65486  28.8191  18.5628 0012806 177.4924 180.9128  1.00285726  2856
NUSANTARA LIMA (NUSANT*)
1 65588U 25205A   26166.35270457 -.00000354  00000+0  00000+0 0  9991
2 65588   0.0174  94.9813 0000176  63.4458 345.0370  1.00268607  2705
TJS-20                  
1 66142U 25238A   26166.70533183  .00000029  00000+0  00000+0 0  9999
2 66142   5.4727 299.5632 0004508 162.6578 118.1170  1.00273962  2319
CMS-03 (GSAT-7R)        
1 66311U 25249B   26166.84402289  .00000000  00000+0  00000+0 0  9995
2 66311   0.0165  15.7877 0001530  65.7457 200.4278  1.00269999  2335
VIASAT-3 F2             
1 66454U 25261A   26165.60175115 -.00000227  00000+0  00000+0 0  9997
2 66454   0.0513 158.2746 0000136 130.5402 111.7385  1.00271296  2763
SHIJIAN-28 (SJ-28)      
1 66549U 25277A   26166.78113714 -.00000355  00000+0  00000+0 0  9998
2 66549   4.5418 272.1582 0000831 348.0905  41.7397  1.00263197  2149
TJS-22                  
1 66990U 25290A   26166.87982568 -.00000005  00000+0  00000+0 0  9996
2 66990   1.5318 286.5325 0001902 330.1699  30.6734  1.00273405  2012
TJS-23                  
1 67226U 25306A   26166.60620190  .00000023  00000+0  00000+0 0  9997
2 67226   5.5915 297.4958 0005377 169.9812 190.2005  1.00275156  1872
FENGYUN 4C              
1 67246U 25312A   26166.71313013 -.00000321  00000+0  00000+0 0  9993
2 67246   0.0518 146.7003 0000519  68.8923  78.1215  1.00271142  1769
SHIJIAN-29A (SJ-29A)    
1 67302U 25315A   26166.97197056 -.00000069  00000+0  00000+0 0  9993
2 67302   3.3949  95.1369 0003101  25.4497 206.7651  1.00269611  1607
SHIJIAN-29B (SJ-29B)    
1 67403U 25315C   26166.97197093 -.00000069  00000+0  00000+0 0  9996
2 67403   3.3938  95.1296 0003725  33.3174 198.9450  1.00269384  1671
ELEKTRO-L 5             
1 67756U 26028A   26166.05730378 -.00000092  00000+0  00000+0 0  9993
2 67756   0.2554 310.8802 0001762 180.7355 228.4002  1.00271134  1239
JAM-E JAM 1             
1 67757U 26028B   26166.83609012  .00000157  00000+0  00000+0 0  9991
2 67757   0.2627 301.9265 0001208 299.0833 358.0379  1.00274789  1107
